STARLINK-36108          
1 66868U 25281W   26182.99566714  .00015260  00000+0  56249-3 0  9990
2 66868  43.0024  58.2382 0001332 269.4250  90.6449 15.27604549 33656
STARLINK-36092          
1 66869U 25281X   26182.98924232  .00034552  00000+0  12582-2 0  9999
2 66869  43.0029  58.1884 0001743 267.1298  92.9354 15.27608426 33659
STARLINK-36114          
1 66870U 25281Y   26182.98538640  .00026454  00000+0  96696-3 0  9996
2 66870  43.0036  58.1580 0001420 266.0639  94.0050 15.27595091 33650
STARLINK-36095          
1 66871U 25281Z   26182.98152915  .00021118  00000+0  77380-3 0  9995
2 66871  43.0038  58.1281 0001686 270.0340  90.0319 15.27619621 33648
STARLINK-36082          
1 66872U 25281AA  26182.97767892  .00024347  00000+0  89042-3 0  9996
2 66872  43.0033  58.0978 0001436 267.2515  92.8172 15.27614009 33654
STARLINK-36128          
1 66873U 25281AB  26182.64047034  .00031165  00000+0  11365-2 0  9998
2 66873  43.0021  59.8644 0000605 271.9842  88.0941 15.27601869 33553
STARLINK-36129          
1 66874U 25281AC  26182.71227882  .00015772  00000+0  58099-3 0  9990
2 66874  43.0028  59.5449 0001200 263.3012  96.7703 15.27604871 33612
STARLINK-36053          
1 66875U 25281AD  26182.96353952  .00021517  00000+0  78838-3 0  9993
2 66875  42.9980  57.9849 0001012 260.7906  99.2832 15.27611750 33602
STARLINK-35702          
1 66876U 25281AE  26182.70842603  .00019094  00000+0  70113-3 0  9997
2 66876  43.0080  59.5143 0001010 267.5415  92.5321 15.27601915 33611
STARLINK-35866          
1 66878U 25283A   26183.30429620  .00013053  00000+0  45220-3 0  9998
2 66878  53.1565 211.6925 0000987  96.7159 263.3954 15.30189545 33390
STARLINK-35749          
1 66879U 25283B   26183.29266296  .00022148  00000+0  75759-3 0  9990
2 66879  53.1568 211.6192 0000654  46.9648 313.1408 15.30203801 33391
STARLINK-35844          
1 66880U 25283C   26183.29793328  .00004563  00000+0  16605-3 0  9999
2 66880  53.1575 211.6524 0001577 131.0568 229.0570 15.30212502 33395
STARLINK-35860          
1 66881U 25283D   26183.28633688  .00018340  00000+0  62955-3 0  9998
2 66881  53.1574 211.5764 0001423 140.0235 220.0871 15.30213618 33395
STARLINK-35912          
1 66882U 25283E   26183.30460646  .00018877  00000+0  56840-3 0  9995
2 66882  53.1570 210.2805 0001188  87.3194 272.7944 15.34401456 33410
STARLINK-35947          
1 66883U 25283F   26183.24788857  .00016628  00000+0  50200-3 0  9992
2 66883  53.1574 210.6378 0002040  87.2764 272.8472 15.34411183 33420
STARLINK-36057          
1 66884U 25283G   26183.27944970  .00034087  00000+0  10148-2 0  9991
2 66884  53.1572 210.8288 0001043  76.6662 283.4456 15.34419033 33402
STARLINK-35954          
1 66885U 25283H   26183.26682572  .00019677  00000+0  59193-3 0  9990
2 66885  53.1580 210.7511 0001942  83.8923 276.2301 15.34401203 33407
STARLINK-35900          
1 66886U 25283J   26183.25841306  .00018021  00000+0  54310-3 0  9990
2 66886  53.1578 210.6982 0002756  87.1904 272.9414 15.34404928 33401
STARLINK-35925          
1 66887U 25283K   26183.27734566  .00029700  00000+0  88632-3 0  9992
2 66887  53.1579 210.8149 0002045  92.1625 267.9611 15.34412186 33405
STARLINK-35919          
1 66888U 25283L   26183.28996720  .00027329  00000+0  81657-3 0  9991
2 66888  53.1566 210.8922 0000961  69.3609 290.7496 15.34417775 33408
STARLINK-35852          
1 66889U 25283M   26183.25631761  .00028254  00000+0  84318-3 0  9995
2 66889  53.1586 210.6828 0002270  86.2914 273.8349 15.34437174 33400
STARLINK-35885          
1 66890U 25283N   26183.26893043  .00021492  00000+0  64522-3 0  9993
2 66890  53.1578 210.7608 0002663  87.5647 272.5660 15.34406934 33405
STARLINK-35855          
1 66891U 25283P   26183.28785065  .00016937  00000+0  51083-3 0  9996
2 66891  53.1589 210.8807 0001330  87.3821 272.7334 15.34428466 33406
STARLINK-35883          
1 66892U 25283Q   26183.30638844  .00023822  00000+0  81377-3 0  9992
2 66892  53.1564 211.7034 0001017  95.8881 264.2236 15.30203946 33399
STARLINK-36033          
1 66893U 25283R   26183.28328292  .00007996  00000+0  28179-3 0  9998
2 66893  53.1588 212.2684 0001192  96.3258 263.7878 15.30203159 33382
STARLINK-35718          
1 66894U 25283S   26183.30006607  .00021782  00000+0  74608-3 0  9992
2 66894  53.1556 211.6606 0001146  95.6008 264.5124 15.30170305 33399
STARLINK-35971          
1 66895U 25283T   26183.25420274  .00026516  00000+0  79252-3 0  9997
2 66895  53.1582 210.6729 0003150  22.9368 337.1775 15.34422166 33403
STARLINK-35791          
1 66896U 25283U   26183.28950354  .00019896  00000+0  68183-3 0  9992
2 66896  53.1579 211.5952 0000940  65.0695 295.0404 15.30211794 33391
STARLINK-36079          
1 66897U 25283V   26183.28576191  .00020377  00000+0  61241-3 0  9990
2 66897  53.1559 210.8674 0000877  70.4486 289.6611 15.34407926 33397
STARLINK-36065          
1 66898U 25283W   26183.30249303  .00017787  00000+0  53583-3 0  9997
2 66898  53.1563 210.2625 0001123  93.1658 266.9473 15.34428151 33411
