OBJECT_NAME,OBJECT_ID,EPOCH,MEAN_MOTION,ECCENTRICITY,INCLINATION,RA_OF_ASC_NODE,ARG_OF_PERICENTER,MEAN_ANOMALY,EPHEMERIS_TYPE,CLASSIFICATION_TYPE,NORAD_CAT_ID,ELEMENT_SET_NO,REV_AT_EPOCH,BSTAR,MEAN_MOTION_DOT,MEAN_MOTION_DDOT
STARLINK-36108,2025-281W,2026-07-01T23:53:45.640896,15.27604549,.00013329,43.0024,58.2382,269.4250,90.6449,0,U,66868,999,3365,.56249232E-3,.1526E-3,0
STARLINK-36092,2025-281X,2026-07-01T23:44:30.536448,15.27608426,.00017438,43.0029,58.1884,267.1298,92.9354,0,U,66869,999,3365,.12581517E-2,.34552E-3,0
STARLINK-36114,2025-281Y,2026-07-01T23:38:57.384960,15.27595091,.00014203,43.0036,58.1580,266.0639,94.0050,0,U,66870,999,3365,.96696196E-3,.26454E-3,0
STARLINK-36095,2025-281Z,2026-07-01T23:33:24.118560,15.27619621,.0001686,43.0038,58.1281,270.0340,90.0319,0,U,66871,999,3364,.77380057E-3,.21118E-3,0
STARLINK-36082,2025-281AA,2026-07-01T23:27:51.458688,15.27614009,.00014363,43.0033,58.0978,267.2515,92.8172,0,U,66872,999,3365,.89042032E-3,.24347E-3,0
STARLINK-36128,2025-281AB,2026-07-01T15:22:16.637376,15.27601869,.00006054,43.0021,59.8644,271.9842,88.0941,0,U,66873,999,3355,.11365145E-2,.31165E-3,0
STARLINK-36129,2025-281AC,2026-07-01T17:05:40.890048,15.27604871,.00012006,43.0028,59.5449,263.3012,96.7703,0,U,66874,999,3361,.58098966E-3,.15772E-3,0
STARLINK-36053,2025-281AD,2026-07-01T23:07:29.814528,15.27611750,.00010123,42.9980,57.9849,260.7906,99.2832,0,U,66875,999,3360,.78837917E-3,.21517E-3,0
STARLINK-35702,2025-281AE,2026-07-01T17:00:08.008992,15.27601915,.00010103,43.0080,59.5143,267.5415,92.5321,0,U,66876,999,3361,.70112607E-3,.19094E-3,0
STARLINK-35866,2025-283A,2026-07-02T07:18:11.191680,15.30189545,.00009875,53.1565,211.6925,96.7159,263.3954,0,U,66878,999,3339,.45219509E-3,.13053E-3,0
STARLINK-35749,2025-283B,2026-07-02T07:01:26.079744,15.30203801,.00006549,53.1568,211.6192,46.9648,313.1408,0,U,66879,999,3339,.7575921E-3,.22148E-3,0
STARLINK-35844,2025-283C,2026-07-02T07:09:01.435392,15.30212502,.00015776,53.1575,211.6524,131.0568,229.0570,0,U,66880,999,3339,.16604754E-3,.4563E-4,0
STARLINK-35860,2025-283D,2026-07-02T06:52:19.506432,15.30213618,.00014236,53.1574,211.5764,140.0235,220.0871,0,U,66881,999,3339,.6295477E-3,.1834E-3,0
STARLINK-35912,2025-283E,2026-07-02T07:18:37.998144,15.34401456,.00011888,53.1570,210.2805,87.3194,272.7944,0,U,66882,999,3341,.56839506E-3,.18877E-3,0
STARLINK-35947,2025-283F,2026-07-02T05:56:57.572448,15.34411183,.00020401,53.1574,210.6378,87.2764,272.8472,0,U,66883,999,3342,.50200126E-3,.16628E-3,0
STARLINK-36057,2025-283G,2026-07-02T06:42:24.454080,15.34419033,.00010432,53.1572,210.8288,76.6662,283.4456,0,U,66884,999,3340,.10147979E-2,.34087E-3,0
STARLINK-35954,2025-283H,2026-07-02T06:24:13.742208,15.34401203,.00019423,53.1580,210.7511,83.8923,276.2301,0,U,66885,999,3340,.59193329E-3,.19677E-3,0
STARLINK-35900,2025-283J,2026-07-02T06:12:06.888384,15.34404928,.00027567,53.1578,210.6982,87.1904,272.9414,0,U,66886,999,3340,.54310199E-3,.18021E-3,0
STARLINK-35925,2025-283K,2026-07-02T06:39:22.665024,15.34412186,.00020457,53.1579,210.8149,92.1625,267.9611,0,U,66887,999,3340,.88631698E-3,.297E-3,0
STARLINK-35919,2025-283L,2026-07-02T06:57:33.166080,15.34417775,.00009616,53.1566,210.8922,69.3609,290.7496,0,U,66888,999,3340,.81656951E-3,.27329E-3,0
STARLINK-35852,2025-283M,2026-07-02T06:09:05.841504,15.34437174,.000227,53.1586,210.6828,86.2914,273.8349,0,U,66889,999,3340,.84317546E-3,.28254E-3,0
STARLINK-35885,2025-283N,2026-07-02T06:27:15.589152,15.34406934,.00026632,53.1578,210.7608,87.5647,272.5660,0,U,66890,999,3340,.64521803E-3,.21492E-3,0
STARLINK-35855,2025-283P,2026-07-02T06:54:30.296160,15.34428466,.00013302,53.1589,210.8807,87.3821,272.7334,0,U,66891,999,3340,.5108296E-3,.16937E-3,0
STARLINK-35883,2025-283Q,2026-07-02T07:21:11.961216,15.30203946,.00010172,53.1564,211.7034,95.8881,264.2236,0,U,66892,999,3339,.81376558E-3,.23822E-3,0
STARLINK-36033,2025-283R,2026-07-02T06:47:55.644288,15.30203159,.00011926,53.1588,212.2684,96.3258,263.7878,0,U,66893,999,3338,.28178778E-3,.7996E-4,0
STARLINK-35718,2025-283S,2026-07-02T07:12:05.708448,15.30170305,.00011463,53.1556,211.6606,95.6008,264.5124,0,U,66894,999,3339,.74608167E-3,.21782E-3,0
STARLINK-35971,2025-283T,2026-07-02T06:06:03.116736,15.34422166,.00031505,53.1582,210.6729,22.9368,337.1775,0,U,66895,999,3340,.79251924E-3,.26516E-3,0
STARLINK-35791,2025-283U,2026-07-02T06:56:53.105856,15.30211794,.00009405,53.1579,211.5952,65.0695,295.0404,0,U,66896,999,3339,.68182665E-3,.19896E-3,0
STARLINK-36079,2025-283V,2026-07-02T06:51:29.829024,15.34407926,.00008775,53.1559,210.8674,70.4486,289.6611,0,U,66897,999,3339,.61240904E-3,.20377E-3,0
STARLINK-36065,2025-283W,2026-07-02T07:15:35.397792,15.34428151,.00011236,53.1563,210.2625,93.1658,266.9473,0,U,66898,999,3341,.53582836E-3,.17787E-3,0
